RANGE-A                 
1 43773U 18099R   26068.70590171  .00005536  00000+0  32166-3 0  9992
2 43773  97.4107 114.1927 0009674 340.4473  19.6386 15.12458640397457
STARLINK-3827           
1 52370U 22045AR  26068.63928744  .00000567  00000+0  53710-4 0  9992
2 52370  53.2187 189.3589 0001291  91.7690 268.3450 15.08837790215917
